{
  "type": "FeatureCollection",
  "features": [
    {
      "type": "Feature",
      "properties": {
        "norad_id": 31979,
        "name": "FENGYUN 1C DEB",
        "group": "fengyun-1c-debris",
        "lat": -62.29208061639235,
        "lon": -128.12489171657842,
        "alt_km": 912.7335394840975,
        "timestamp": "2025-12-03T08:58:46.287160+00:00",
        "meta_object_name": "FENGYUN 1C DEB",
        "meta_object_id": "1999-025CPG",
        "meta_epoch": "2025-12-02T12:28:35.492736",
        "meta_mean_motion": 13.69187291,
        "meta_eccentricity": 0.02646506,
        "meta_inclination": 99.3777,
        "meta_ra_of_asc_node": 69.3826,
        "meta_arg_of_pericenter": 307.5764,
        "meta_mean_anomaly": 50.1611,
        "meta_ephemeris_type": 0,
        "meta_classification_type": "U",
        "meta_norad_cat_id": 31979,
        "meta_element_set_no": 999,
        "meta_rev_at_epoch": 57772,
        "meta_bstar": 0.003510695,
        "meta_mean_motion_dot": 3.844e-05,
        "meta_mean_motion_ddot": 0,
        "tle_line1": "1 31979U 99025CPG 25336.51985524  .00003844  00000+0  35107-2 0  9998",
        "tle_line2": "2 31979  99.3777  69.3826 0264650 307.5764  50.1611 13.69187291577721"
      },
      "geometry": {
        "type": "Point",
        "coordinates": [
          -128.12489171657842,
          -62.29208061639235
        ]
      }
    },
    {
      "type": "Feature",
      "properties": {
        "norad_id": 31980,
        "name": "FENGYUN 1C DEB",
        "group": "fengyun-1c-debris",
        "lat": 81.25065249822313,
        "lon": -54.59370810309198,
        "alt_km": 887.8463762967558,
        "timestamp": "2025-12-03T08:58:46.287172+00:00",
        "meta_object_name": "FENGYUN 1C DEB",
        "meta_object_id": "1999-025CPH",
        "meta_epoch": "2025-11-07T01:33:48.122784",
        "meta_mean_motion": 13.32082371,
        "meta_eccentricity": 0.04288031,
        "meta_inclination": 97.6138,
        "meta_ra_of_asc_node": 45.4675,
        "meta_arg_of_pericenter": 204.355,
        "meta_mean_anomaly": 153.6774,
        "meta_ephemeris_type": 0,
        "meta_classification_type": "U",
        "meta_norad_cat_id": 31980,
        "meta_element_set_no": 999,
        "meta_rev_at_epoch": 89195,
        "meta_bstar": 0.0011351544,
        "meta_mean_motion_dot": 8.87e-06,
        "meta_mean_motion_ddot": 0,
        "tle_line1": "1 31980U 99025CPH 25311.06514031  .00000887  00000+0  11352-2 0  9994",
        "tle_line2": "2 31980  97.6138  45.4675 0428803 204.3550 153.6774 13.32082371891957"
      },
      "geometry": {
        "type": "Point",
        "coordinates": [
          -54.59370810309198,
          81.25065249822313
        ]
      }
    },
    {
      "type": "Feature",
      "properties": {
        "norad_id": 31984,
        "name": "FENGYUN 1C DEB",
        "group": "fengyun-1c-debris",
        "lat": -81.11348064042366,
        "lon": 56.350252369205556,
        "alt_km": 779.8258033115962,
        "timestamp": "2025-12-03T08:58:46.287185+00:00",
        "meta_object_name": "FENGYUN 1C DEB",
        "meta_object_id": "1999-025CPM",
        "meta_epoch": "2025-12-02T19:53:15.321984",
        "meta_mean_motion": 14.2293256,
        "meta_eccentricity": 0.0062531,
        "meta_inclination": 98.5577,
        "meta_ra_of_asc_node": 341.445,
        "meta_arg_of_pericenter": 256.5759,
        "meta_mean_anomaly": 102.8445,
        "meta_ephemeris_type": 0,
        "meta_classification_type": "U",
        "meta_norad_cat_id": 31984,
        "meta_element_set_no": 999,
        "meta_rev_at_epoch": 94232,
        "meta_bstar": 0.00049073,
        "meta_mean_motion_dot": 1.083e-05,
        "meta_mean_motion_ddot": 0,
        "tle_line1": "1 31984U 99025CPM 25336.82864956  .00001083  00000+0  49073-3 0  9994",
        "tle_line2": "2 31984  98.5577 341.4450 0062531 256.5759 102.8445 14.22932560942323"
      },
      "geometry": {
        "type": "Point",
        "coordinates": [
          56.350252369205556,
          -81.11348064042366
        ]
      }
    },
    {
      "type": "Feature",
      "properties": {
        "norad_id": 31985,
        "name": "FENGYUN 1C DEB",
        "group": "fengyun-1c-debris",
        "lat": 47.07214140950202,
        "lon": -129.7291647165949,
        "alt_km": 884.607438948834,
        "timestamp": "2025-12-03T08:58:46.287196+00:00",
        "meta_object_name": "FENGYUN 1C DEB",
        "meta_object_id": "1999-025CPN",
        "meta_epoch": "2025-11-24T23:55:40.651392",
        "meta_mean_motion": 14.22924304,
        "meta_eccentricity": 0.01509495,
        "meta_inclination": 98.2192,
        "meta_ra_of_asc_node": 231.3867,
        "meta_arg_of_pericenter": 299.2224,
        "meta_mean_anomaly": 59.3931,
        "meta_ephemeris_type": 0,
        "meta_classification_type": "U",
        "meta_norad_cat_id": 31985,
        "meta_element_set_no": 999,
        "meta_rev_at_epoch": 95358,
        "meta_bstar": 0.0005103033,
        "meta_mean_motion_dot": 1.248e-05,
        "meta_mean_motion_ddot": 0,
        "tle_line1": "1 31985U 99025CPN 25328.99699828  .00001248  00000+0  51030-3 0  9997",
        "tle_line2": "2 31985  98.2192 231.3867 0150949 299.2224  59.3931 14.22924304953588"
      },
      "geometry": {
        "type": "Point",
        "coordinates": [
          -129.7291647165949,
          47.07214140950202
        ]
      }
    },
    {
      "type": "Feature",
      "properties": {
        "norad_id": 31987,
        "name": "FENGYUN 1C DEB",
        "group": "fengyun-1c-debris",
        "lat": 8.297772698227242,
        "lon": 131.71679732870754,
        "alt_km": 709.2770697322039,
        "timestamp": "2025-12-03T08:58:46.287205+00:00",
        "meta_object_name": "FENGYUN 1C DEB",
        "meta_object_id": "1999-025CPQ",
        "meta_epoch": "2025-12-02T16:23:08.261664",
        "meta_mean_motion": 14.44796864,
        "meta_eccentricity": 0.00509556,
        "meta_inclination": 99.038,
        "meta_ra_of_asc_node": 309.6517,
        "meta_arg_of_pericenter": 187.7559,
        "meta_mean_anomaly": 349.6916,
        "meta_ephemeris_type": 0,
        "meta_classification_type": "U",
        "meta_norad_cat_id": 31987,
        "meta_element_set_no": 999,
        "meta_rev_at_epoch": 96224,
        "meta_bstar": 0.0013654525,
        "meta_mean_motion_dot": 4.773e-05,
        "meta_mean_motion_ddot": 0,
        "tle_line1": "1 31987U 99025CPQ 25336.68273451  .00004773  00000+0  13655-2 0  9990",
        "tle_line2": "2 31987  99.0380 309.6517 0050955 187.7559 349.6916 14.44796864962240"
      },
      "geometry": {
        "type": "Point",
        "coordinates": [
          131.71679732870754,
          8.297772698227242
        ]
      }
    },
    {
      "type": "Feature",
      "properties": {
        "norad_id": 31989,
        "name": "FENGYUN 1C DEB",
        "group": "fengyun-1c-debris",
        "lat": 35.56624935947975,
        "lon": 31.893258188186845,
        "alt_km": 885.9545074016023,
        "timestamp": "2025-12-03T08:58:46.287215+00:00",
        "meta_object_name": "FENGYUN 1C DEB",
        "meta_object_id": "1999-025CPS",
        "meta_epoch": "2025-12-01T03:31:29.682048",
        "meta_mean_motion": 13.93560032,
        "meta_eccentricity": 0.01155015,
        "meta_inclination": 99.2147,
        "meta_ra_of_asc_node": 36.3397,
        "meta_arg_of_pericenter": 330.8082,
        "meta_mean_anomaly": 56.337,
        "meta_ephemeris_type": 0,
        "meta_classification_type": "U",
        "meta_norad_cat_id": 31989,
        "meta_element_set_no": 999,
        "meta_rev_at_epoch": 93556,
        "meta_bstar": 0.00052076403,
        "meta_mean_motion_dot": 6.76e-06,
        "meta_mean_motion_ddot": 0,
        "tle_line1": "1 31989U 99025CPS 25335.14687132  .00000676  00000+0  52076-3 0  9996",
        "tle_line2": "2 31989  99.2147  36.3397 0115501 330.8082  56.3370 13.93560032935566"
      },
      "geometry": {
        "type": "Point",
        "coordinates": [
          31.893258188186845,
          35.56624935947975
        ]
      }
    },
    {
      "type": "Feature",
      "properties": {
        "norad_id": 31990,
        "name": "FENGYUN 1C DEB",
        "group": "fengyun-1c-debris",
        "lat": -76.7222224722702,
        "lon": 43.63859273547717,
        "alt_km": 986.3575682746705,
        "timestamp": "2025-12-03T08:58:46.287225+00:00",
        "meta_object_name": "FENGYUN 1C DEB",
        "meta_object_id": "1999-025CPT",
        "meta_epoch": "2025-12-02T20:07:51.138912",
        "meta_mean_motion": 13.57194957,
        "meta_eccentricity": 0.0259839,
        "meta_inclination": 99.1612,
        "meta_ra_of_asc_node": 359.9971,
        "meta_arg_of_pericenter": 209.9037,
        "meta_mean_anomaly": 332.6161,
        "meta_ephemeris_type": 0,
        "meta_classification_type": "U",
        "meta_norad_cat_id": 31990,
        "meta_element_set_no": 999,
        "meta_rev_at_epoch": 62637,
        "meta_bstar": 0.0003531,
        "meta_mean_motion_dot": 2.72e-06,
        "meta_mean_motion_ddot": 0,
        "tle_line1": "1 31990U 99025CPT 25336.83878633  .00000272  00000+0  35310-3 0  9997",
        "tle_line2": "2 31990  99.1612 359.9971 0259839 209.9037 332.6161 13.57194957626378"
      },
      "geometry": {
        "type": "Point",
        "coordinates": [
          43.63859273547717,
          -76.7222224722702
        ]
      }
    }
  ]
}